FLOCK 4G-26             
1 62633U 25009AA  26068.80489479  .00011283  00000+0  42469-3 0  9999
2 62633  97.4054 151.3913 0001988 299.1273  60.9767 15.27281631 63733
STARLINK-33931          
1 64006U 25101N   26068.19438065  .00026621  00000+0  97277-3 0  9994
2 64006  43.0027   0.4019 0001225 290.8123  69.2597 15.27602185 47009
